ORBCOMM FM20            
1 25416U 98046D   25042.42453132  .00001873  00000+0  67694-3 0  9995
2 25416  44.9951  56.6676 0002473 296.8397  63.2197 14.36737540386171
ORBCOMM FM16            
1 25417U 98046E   25042.49329650  .00002774  00000+0  95006-3 0  9999
2 25417  44.9939  49.4882 0004790 352.4594   7.6181 14.38244509386152
ORBCOMM FM15            
1 25418U 98046F   25042.43935768  .00002424  00000+0  84168-3 0  9996
2 25418  44.9968  54.5242 0004302 349.9708  10.1054 14.37918593386146
ORBCOMM FM14            
1 25419U 98046G   25042.41757314  .00002397  00000+0  82761-3 0  9990
2 25419  44.9959  53.2065 0003805 334.3183  25.7476 14.38228571386105
ORBCOMM FM13            
1 25420U 98046H   25042.42758452  .00002299  00000+0  81358-3 0  9999
2 25420  44.9974  59.9691 0005659 340.1791  19.8836 14.37127569385142
ORBCOMM FM21            
1 25475U 98053A   25042.61649430  .00001778  00000+0  64310-3 0  9993
2 25475  45.0074 143.9683 0002429 255.8695 104.1883 14.36879393379182
ORBCOMM FM22            
1 25476U 98053B   25042.53057819  .00002462  00000+0  85698-3 0  9992
2 25476  45.0067 140.1806 0003996 277.4420  82.5974 14.37766696379189
ORBCOMM FM23            
1 25477U 98053C   25042.56165957  .00001877  00000+0  67463-3 0  9998
2 25477  45.0075 146.5057 0003195 268.0631  91.9851 14.37004946379325
