<?xml version="1.0" encoding="UTF-8"?>
<ndm xmlns:xsi="http://www.w3.org/2001/XMLSchema-instance" xsi:noNamespaceSchemaLocation="https://sanaregistry.org/r/ndmxml_unqualified/ndmxml-2.0.0-master-2.0.xsd">
<omm id="CCSDS_OMM_VERS" version="2.0">
<header><CREATION_DATE/><ORIGINATOR/></header><body><segment><metadata><OBJECT_NAME>ORBCOMM FM20</OBJECT_NAME><OBJECT_ID>1998-046D</OBJECT_ID><CENTER_NAME>EARTH</CENTER_NAME><REF_FRAME>TEME</REF_FRAME><TIME_SYSTEM>UTC</TIME_SYSTEM><MEAN_ELEMENT_THEORY>SGP4</MEAN_ELEMENT_THEORY></metadata><data><meanElements><EPOCH>2025-02-11T10:11:19.506048</EPOCH><MEAN_MOTION>14.36737540</MEAN_MOTION><ECCENTRICITY>.0002473</ECCENTRICITY><INCLINATION>44.9951</INCLINATION><RA_OF_ASC_NODE>56.6676</RA_OF_ASC_NODE><ARG_OF_PERICENTER>296.8397</ARG_OF_PERICENTER><MEAN_ANOMALY>63.2197</MEAN_ANOMALY></meanElements><tleParameters><EPHEMERIS_TYPE>0</EPHEMERIS_TYPE><CLASSIFICATION_TYPE>U</CLASSIFICATION_TYPE><NORAD_CAT_ID>25416</NORAD_CAT_ID><ELEMENT_SET_NO>999</ELEMENT_SET_NO><REV_AT_EPOCH>38617</REV_AT_EPOCH><BSTAR>.67694E-3</BSTAR><MEAN_MOTION_DOT>.1873E-4</MEAN_MOTION_DOT><MEAN_MOTION_DDOT>0</MEAN_MOTION_DDOT></tleParameters></data></segment></body></omm>
<omm id="CCSDS_OMM_VERS" version="2.0">
<header><CREATION_DATE/><ORIGINATOR/></header><body><segment><metadata><OBJECT_NAME>ORBCOMM FM16</OBJECT_NAME><OBJECT_ID>1998-046E</OBJECT_ID><CENTER_NAME>EARTH</CENTER_NAME><REF_FRAME>TEME</REF_FRAME><TIME_SYSTEM>UTC</TIME_SYSTEM><MEAN_ELEMENT_THEORY>SGP4</MEAN_ELEMENT_THEORY></metadata><data><meanElements><EPOCH>2025-02-11T11:50:20.817600</EPOCH><MEAN_MOTION>14.38244509</MEAN_MOTION><ECCENTRICITY>.000479</ECCENTRICITY><INCLINATION>44.9939</INCLINATION><RA_OF_ASC_NODE>49.4882</RA_OF_ASC_NODE><ARG_OF_PERICENTER>352.4594</ARG_OF_PERICENTER><MEAN_ANOMALY>7.6181</MEAN_ANOMALY></meanElements><tleParameters><EPHEMERIS_TYPE>0</EPHEMERIS_TYPE><CLASSIFICATION_TYPE>U</CLASSIFICATION_TYPE><NORAD_CAT_ID>25417</NORAD_CAT_ID><ELEMENT_SET_NO>999</ELEMENT_SET_NO><REV_AT_EPOCH>38615</REV_AT_EPOCH><BSTAR>.95006E-3</BSTAR><MEAN_MOTION_DOT>.2774E-4</MEAN_MOTION_DOT><MEAN_MOTION_DDOT>0</MEAN_MOTION_DDOT></tleParameters></data></segment></body></omm>
<omm id="CCSDS_OMM_VERS" version="2.0">
<header><CREATION_DATE/><ORIGINATOR/></header><body><segment><metadata><OBJECT_NAME>ORBCOMM FM15</OBJECT_NAME><OBJECT_ID>1998-046F</OBJECT_ID><CENTER_NAME>EARTH</CENTER_NAME><REF_FRAME>TEME</REF_FRAME><TIME_SYSTEM>UTC</TIME_SYSTEM><MEAN_ELEMENT_THEORY>SGP4</MEAN_ELEMENT_THEORY></metadata><data><meanElements><EPOCH>2025-02-11T10:32:40.503552</EPOCH><MEAN_MOTION>14.37918593</MEAN_MOTION><ECCENTRICITY>.0004302</ECCENTRICITY><INCLINATION>44.9968</INCLINATION><RA_OF_ASC_NODE>54.5242</RA_OF_ASC_NODE><ARG_OF_PERICENTER>349.9708</ARG_OF_PERICENTER><MEAN_ANOMALY>10.1054</MEAN_ANOMALY></meanElements><tleParameters><EPHEMERIS_TYPE>0</EPHEMERIS_TYPE><CLASSIFICATION_TYPE>U</CLASSIFICATION_TYPE><NORAD_CAT_ID>25418</NORAD_CAT_ID><ELEMENT_SET_NO>999</ELEMENT_SET_NO><REV_AT_EPOCH>38614</REV_AT_EPOCH><BSTAR>.84168E-3</BSTAR><MEAN_MOTION_DOT>.2424E-4</MEAN_MOTION_DOT><MEAN_MOTION_DDOT>0</MEAN_MOTION_DDOT></tleParameters></data></segment></body></omm>
<omm id="CCSDS_OMM_VERS" version="2.0">
<header><CREATION_DATE/><ORIGINATOR/></header><body><segment><metadata><OBJECT_NAME>ORBCOMM FM14</OBJECT_NAME><OBJECT_ID>1998-046G</OBJECT_ID><CENTER_NAME>EARTH</CENTER_NAME><REF_FRAME>TEME</REF_FRAME><TIME_SYSTEM>UTC</TIME_SYSTEM><MEAN_ELEMENT_THEORY>SGP4</MEAN_ELEMENT_THEORY></metadata><data><meanElements><EPOCH>2025-02-11T10:01:18.319296</EPOCH><MEAN_MOTION>14.38228571</MEAN_MOTION><ECCENTRICITY>.0003805</ECCENTRICITY><INCLINATION>44.9959</INCLINATION><RA_OF_ASC_NODE>53.2065</RA_OF_ASC_NODE><ARG_OF_PERICENTER>334.3183</ARG_OF_PERICENTER><MEAN_ANOMALY>25.7476</MEAN_ANOMALY></meanElements><tleParameters><EPHEMERIS_TYPE>0</EPHEMERIS_TYPE><CLASSIFICATION_TYPE>U</CLASSIFICATION_TYPE><NORAD_CAT_ID>25419</NORAD_CAT_ID><ELEMENT_SET_NO>999</ELEMENT_SET_NO><REV_AT_EPOCH>38610</REV_AT_EPOCH><BSTAR>.82761E-3</BSTAR><MEAN_MOTION_DOT>.2397E-4</MEAN_MOTION_DOT><MEAN_MOTION_DDOT>0</MEAN_MOTION_DDOT></tleParameters></data></segment></body></omm>
<omm id="CCSDS_OMM_VERS" version="2.0">
<header><CREATION_DATE/><ORIGINATOR/></header><body><segment><metadata><OBJECT_NAME>ORBCOMM FM13</OBJECT_NAME><OBJECT_ID>1998-046H</OBJECT_ID><CENTER_NAME>EARTH</CENTER_NAME><REF_FRAME>TEME</REF_FRAME><TIME_SYSTEM>UTC</TIME_SYSTEM><MEAN_ELEMENT_THEORY>SGP4</MEAN_ELEMENT_THEORY></metadata><data><meanElements><EPOCH>2025-02-11T10:15:43.302528</EPOCH><MEAN_MOTION>14.37127569</MEAN_MOTION><ECCENTRICITY>.0005659</ECCENTRICITY><INCLINATION>44.9974</INCLINATION><RA_OF_ASC_NODE>59.9691</RA_OF_ASC_NODE><ARG_OF_PERICENTER>340.1791</ARG_OF_PERICENTER><MEAN_ANOMALY>19.8836</MEAN_ANOMALY></meanElements><tleParameters><EPHEMERIS_TYPE>0</EPHEMERIS_TYPE><CLASSIFICATION_TYPE>U</CLASSIFICATION_TYPE><NORAD_CAT_ID>25420</NORAD_CAT_ID><ELEMENT_SET_NO>999</ELEMENT_SET_NO><REV_AT_EPOCH>38514</REV_AT_EPOCH><BSTAR>.81358E-3</BSTAR><MEAN_MOTION_DOT>.2299E-4</MEAN_MOTION_DOT><MEAN_MOTION_DDOT>0</MEAN_MOTION_DDOT></tleParameters></data></segment></body></omm>
<omm id="CCSDS_OMM_VERS" version="2.0">
<header><CREATION_DATE/><ORIGINATOR/></header><body><segment><metadata><OBJECT_NAME>ORBCOMM FM21</OBJECT_NAME><OBJECT_ID>1998-053A</OBJECT_ID><CENTER_NAME>EARTH</CENTER_NAME><REF_FRAME>TEME</REF_FRAME><TIME_SYSTEM>UTC</TIME_SYSTEM><MEAN_ELEMENT_THEORY>SGP4</MEAN_ELEMENT_THEORY></metadata><data><meanElements><EPOCH>2025-02-11T14:47:45.107520</EPOCH><MEAN_MOTION>14.36879393</MEAN_MOTION><ECCENTRICITY>.0002429</ECCENTRICITY><INCLINATION>45.0074</INCLINATION><RA_OF_ASC_NODE>143.9683</RA_OF_ASC_NODE><ARG_OF_PERICENTER>255.8695</ARG_OF_PERICENTER><MEAN_ANOMALY>104.1883</MEAN_ANOMALY></meanElements><tleParameters><EPHEMERIS_TYPE>0</EPHEMERIS_TYPE><CLASSIFICATION_TYPE>U</CLASSIFICATION_TYPE><NORAD_CAT_ID>25475</NORAD_CAT_ID><ELEMENT_SET_NO>999</ELEMENT_SET_NO><REV_AT_EPOCH>37918</REV_AT_EPOCH><BSTAR>.6431E-3</BSTAR><MEAN_MOTION_DOT>.1778E-4</MEAN_MOTION_DOT><MEAN_MOTION_DDOT>0</MEAN_MOTION_DDOT></tleParameters></data></segment></body></omm>
<omm id="CCSDS_OMM_VERS" version="2.0">
<header><CREATION_DATE/><ORIGINATOR/></header><body><segment><metadata><OBJECT_NAME>ORBCOMM FM22</OBJECT_NAME><OBJECT_ID>1998-053B</OBJECT_ID><CENTER_NAME>EARTH</CENTER_NAME><REF_FRAME>TEME</REF_FRAME><TIME_SYSTEM>UTC</TIME_SYSTEM><MEAN_ELEMENT_THEORY>SGP4</MEAN_ELEMENT_THEORY></metadata><data><meanElements><EPOCH>2025-02-11T12:44:01.955616</EPOCH><MEAN_MOTION>14.37766696</MEAN_MOTION><ECCENTRICITY>.0003996</ECCENTRICITY><INCLINATION>45.0067</INCLINATION><RA_OF_ASC_NODE>140.1806</RA_OF_ASC_NODE><ARG_OF_PERICENTER>277.4420</ARG_OF_PERICENTER><MEAN_ANOMALY>82.5974</MEAN_ANOMALY></meanElements><tleParameters><EPHEMERIS_TYPE>0</EPHEMERIS_TYPE><CLASSIFICATION_TYPE>U</CLASSIFICATION_TYPE><NORAD_CAT_ID>25476</NORAD_CAT_ID><ELEMENT_SET_NO>999</ELEMENT_SET_NO><REV_AT_EPOCH>37918</REV_AT_EPOCH><BSTAR>.85698E-3</BSTAR><MEAN_MOTION_DOT>.2462E-4</MEAN_MOTION_DOT><MEAN_MOTION_DDOT>0</MEAN_MOTION_DDOT></tleParameters></data></segment></body></omm>
<omm id="CCSDS_OMM_VERS" version="2.0">
<header><CREATION_DATE/><ORIGINATOR/></header><body><segment><metadata><OBJECT_NAME>ORBCOMM FM23</OBJECT_NAME><OBJECT_ID>1998-053C</OBJECT_ID><CENTER_NAME>EARTH</CENTER_NAME><REF_FRAME>TEME</REF_FRAME><TIME_SYSTEM>UTC</TIME_SYSTEM><MEAN_ELEMENT_THEORY>SGP4</MEAN_ELEMENT_THEORY></metadata><data><meanElements><EPOCH>2025-02-11T13:28:47.386848</EPOCH><MEAN_MOTION>14.37004946</MEAN_MOTION><ECCENTRICITY>.0003195</ECCENTRICITY><INCLINATION>45.0075</INCLINATION><RA_OF_ASC_NODE>146.5057</RA_OF_ASC_NODE><ARG_OF_PERICENTER>268.0631</ARG_OF_PERICENTER><MEAN_ANOMALY>91.9851</MEAN_ANOMALY></meanElements><tleParameters><EPHEMERIS_TYPE>0</EPHEMERIS_TYPE><CLASSIFICATION_TYPE>U</CLASSIFICATION_TYPE><NORAD_CAT_ID>25477</NORAD_CAT_ID><ELEMENT_SET_NO>999</ELEMENT_SET_NO><REV_AT_EPOCH>37932</REV_AT_EPOCH><BSTAR>.67463E-3</BSTAR><MEAN_MOTION_DOT>.1877E-4</MEAN_MOTION_DOT><MEAN_MOTION_DDOT>0</MEAN_MOTION_DDOT></tleParameters></data></segment></body></omm>

</ndm>
